TDRS 9                  
1 27389U 02011A   18341.56960144 -.00000103  00000-0  00000+0 0  9999
2 27389   6.3488  73.0149 0021713 249.2143 306.9459  1.00272977 62888
JCSAT 2A                
1 27399U 02015A   18341.88674743 -.00000298  00000-0  00000-0 0  9992
2 27399   1.6424  89.2887 0004048 167.7727 273.0513  1.00395202 61341
ASTRA 3A                
1 27400U 02015B   18342.10034437 -.00000282  00000-0  00000+0 0  9993
2 27400   4.8394  66.2540 0002318 196.6065 163.1002  1.00272931 61165
INTELSAT 903 (IS-903)   
1 27403U 02016A   18342.41603767 -.00000222  00000-0  00000+0 0  9993
2 27403   1.0122  92.9732 0000478 106.1785 356.2428  1.00272254 61092
NSS-7                   
1 27414U 02019A   18342.06351490 -.00000155  00000-0  00000+0 0  9997
2 27414   3.0237  80.1244 0002471 178.5205 181.0018  1.00271299 61003
DIRECTV 5 (TEMPO 1)     
1 27426U 02023A   18342.09243371 -.00000054  00000-0  00000+0 0  9994
2 27426   0.0123 294.9245 0002778 320.8916 104.1652  1.00271865 60754
INTELSAT 905 (IS-905)   
1 27438U 02027A   18342.13025250 -.00000182  00000-0  00000+0 0  9992
2 27438   0.0062  86.4945 0002873 131.5065 241.2432  1.00273011 60404
EXPRESS-A4              
1 27441U 02029A   18341.64639721 -.00000247  00000-0  00000+0 0  9999
2 27441   6.9454  53.2829 0008864  96.5248 304.6914  1.00277372 60414
GALAXY 3C (G-3C)        
1 27445U 02030A   18342.05075917 -.00000149  00000-0  00000+0 0  9993
2 27445   0.0154 317.4175 0001616   9.2660  33.3187  1.00274408 60400
EUTELSAT 5 WEST A       
1 27460U 02035A   18341.80120169 -.00000040  00000-0  00000-0 0  9998
2 27460   0.0679  59.9562 0004842 200.2588  99.7424  1.00273370 60062
N-STAR C                
1 27461U 02035B   18342.16226813 -.00000311  00000-0  00000+0 0  9992
2 27461   5.6199  61.8984 0000758 327.9318 241.4612  1.00274119 60103
EUTELSAT 36 WEST A      
1 27508U 02040A   18342.33274583 -.00000207  00000-0  00000+0 0  9990
2 27508   0.4322  88.2332 0005905 237.7950  33.9456  0.98295226 59695
METEOSAT-8 (MSG-1)      
1 27509U 02040B   18341.82801660  .00000138  00000-0  00000+0 0  9998
2 27509   5.7640  56.3213 0001215 283.6758  76.0924  1.00279090 59690
INTELSAT 906 (IS-906)   
1 27513U 02041A   18342.14796142  .00000017  00000-0  00000+0 0  9994
2 27513   0.0138 298.8463 0002340 326.3661 289.0759  1.00271380 59419
KALPANA-1 (METSAT 1)    
1 27525U 02043A   18341.76001462  .00000005  00000-0  00000-0 0  9998
2 27525   8.5707  51.5065 0001498  64.6949 295.1936  0.98336986 59463
HISPASAT 1D             
1 27528U 02044A   18342.41629939 -.00000213  00000-0  00000+0 0  9991
2 27528   0.0224 349.1828 0004790 289.3776 278.4448  1.00271759 59396
TDRS 10                 
1 27566U 02055A   18341.41890517  .00000092  00000-0  00000-0 0  9991
2 27566   5.9526  56.0724 0008968 236.6399 123.0625  1.00276434 58670
NSS-6                   
1 27603U 02057A   18342.51304413 -.00000267  00000-0  00000+0 0  9996
2 27603   0.0427  99.7142 0002714 166.5342  90.6801  1.00271569 58543
NIMIQ 2                 
1 27632U 02062A   18342.18025938 -.00000236  00000-0  00000+0 0  9995
2 27632   3.1290  79.3494 0007065 167.4968 192.0544  0.99694515 58312
INTELSAT 907 (IS-907)   
1 27683U 03007A   18341.86361793 -.00000200  00000-0  00000-0 0  9999
2 27683   0.0169 255.9322 0002417 356.4837 107.5699  1.00271923 57871
GALAXY 12 (G-12)        
1 27715U 03013B   18341.67869566  .00000061  00000-0  00000-0 0  9996
2 27715   0.2110  96.7887 0002508 176.2155 278.7202  1.00271691 57440
ASIASAT 4               
1 27718U 03014A   18341.90398850  .00000155  00000-0  00000-0 0  9993
2 27718   0.0521 106.2764 0000508 126.4552 207.5448  1.00271163 17738
HELLAS-SAT 2            
1 27811U 03020A   18341.90227749  .00000154  00000-0  00000-0 0  9991
2 27811   0.6290  99.7593 0007316 152.8856 187.7934  1.00273263 15292
THURAYA-2               
1 27825U 03026A   18341.25535432  .00000128  00000-0  00000-0 0  9992
2 27825   5.3927  31.1402 0004512 222.1119 318.6397  1.00270974 56775
OPTUS C1                
1 27831U 03028B   18342.52516993 -.00000148  00000-0  00000+0 0  9995
2 27831   0.1376 113.1380 0004031 142.6273 166.1881  1.00270192 56778
ECHOSTAR 12 (RAINBOW 1) 
1 27852U 03033A   18342.47684118 -.00000196  00000-0  00000+0 0  9996
2 27852   0.0101 336.4050 0001309 255.3375 290.6978  1.00270962 56405
GALAXY 23 (G-23)        
1 27854U 03034A   18341.89568733  .00000015  00000-0  00000-0 0  9998
2 27854   0.0190 302.0650 0003217 320.5744  15.4411  1.00271837 56187
GALAXY 13 (HORIZONS-1)  
1 27954U 03044A   18342.46881546  .00000051  00000-0  00000+0 0  9993
2 27954   0.0354  90.6552 0000126 170.1808 218.1067  1.00271035 55602
YAMAL 202               
1 28089U 03053A   18340.99626338  .00000121  00000-0  00000+0 0  9993
2 28089   0.0582 109.2291 0004245 145.1621 228.9859  1.00272230 55115
EXPRESS-AM22 (SESAT 2)  
1 28134U 03060A   18341.35604880 -.00000137  00000-0  00000-0 0  9990
2 28134   1.6072  88.8028 0000471 261.2580 294.3051  1.00270828 54704
AMC-10 (GE-10)          
1 28154U 04003A   18341.67747435  .00000090  00000-0  00000+0 0  9995
2 28154   0.0126 316.4611 0000536 227.5387   1.2785  1.00269942 54376
ABS-4 (MOBISAT-1)       
1 28184U 04007A   18342.14735075  .00000044  00000-0  00000+0 0  9991
2 28184   0.0028  11.2726 0002773 265.3590 274.2728  1.00270658 54025
EUTELSAT 7A             
1 28187U 04008A   18341.77765698  .00000050  00000-0  00000-0 0  9995
2 28187   0.0645   6.5778 0004903 231.2536 125.6186  1.00270726 53792
DIRECTV 7S              
1 28238U 04016A   18342.47038571  .00000004  00000-0  00000+0 0  9990
2 28238   0.0122  26.2462 0002826 232.8020 228.4028  1.00271482 53501
AMC-11 (GE-11)          
1 28252U 04017A   18342.49877951  .00000071  00000-0  00000+0 0  9996
2 28252   0.0151 349.9138 0002094 267.6947 228.1594  1.00276081 53151
INTELSAT 10-02          
1 28358U 04022A   18341.81299309 -.00000009  00000-0  00000-0 0  9992
2 28358   0.0182 335.6460 0000479  31.2639   1.3070  1.00272731 53091
APSTAR 5 (TELSTAR 18)   
1 28364U 04024A   18341.87553581 -.00000292  00000-0  00000-0 0  9996
2 28364   0.1360 102.6168 0002581 127.9626 299.2219  1.00271576 53065
ANIK F2                 
1 28378U 04027A   18342.11297977 -.00000047  00000-0  00000+0 0  9993
2 28378   0.0098 344.7361 0000259  93.5318 288.1645  1.00271838 52809
AMC-15                  
1 28446U 04041A   18342.11420108 -.00000086  00000-0  00000+0 0  9992
2 28446   0.0313  47.9237 0002485 204.3205 120.6475  1.00272006 51829
AMC-16                  
1 28472U 04048A   18342.47719014 -.00000204  00000-0  00000+0 0  9996
2 28472   0.0294  53.8431 0002333 211.1098 259.0339  1.00272402 51260
NSS-10 (AMC-12)         
1 28526U 05003A   18342.48661162 -.00000248  00000-0  00000+0 0  9997
2 28526   0.0100 326.9646 0002800 303.8418 304.1296  1.00271571 50766
XTAR-EUR                
1 28542U 05005A   18341.70710418  .00000153  00000-0  00000+0 0  9994
2 28542   0.0382  92.0763 0002482 162.2804 105.6282  1.00270543 50621
XM-3 (RHYTHM)           
1 28626U 05008A   18342.11821392 -.00000203  00000-0  00000+0 0  9997
2 28626   0.0075  85.7584 0000014 271.7906  36.7253  1.00271827 50517
INMARSAT 4-F1           
1 28628U 05009A   18342.44073492 -.00000260  00000-0  00000+0 0  9999
2 28628   2.9454  19.6447 0002589 244.1626 115.5078  1.00271789 50122
APSTAR 6                
1 28638U 05012A   18341.92618917 -.00000317  00000-0  00000-0 0  9997
2 28638   0.4076  96.7139 0002564 167.9324 279.1985  1.00269810 74852
SPACEWAY 1              
1 28644U 05015A   18342.43929193  .00000107  00000-0  00000+0 0  9990
2 28644   0.0691 142.7195 0000093 276.3881  37.2758  1.00272084 49962
DIRECTV 8               
1 28659U 05019A   18341.06928232 -.00000114  00000-0  00000-0 0  9991
2 28659   0.0182 335.9266 0002581 277.4038 106.6540  1.00271625 49586
GALAXY 28 (G-28)        
1 28702U 05022A   18342.11742880 -.00000183  00000-0  00000+0 0  9999
2 28702   0.0147  34.3210 0000862   8.5587 347.2297  1.00271885 49273
EXPRESS-AM3             
1 28707U 05023A   18340.69467229 -.00000321  00000-0  00000+0 0  9991
2 28707   0.5514  93.8416 0001311  96.2183 238.4400  1.00269043 49275
THAICOM 4               
1 28786U 05028A   18341.87187189 -.00000360  00000-0  00000-0 0  9992
2 28786   0.0171 359.7895 0001964 254.5847 255.6155  1.00271466 24724
GALAXY 14 (G-14)        
1 28790U 05030A   18342.11027545  .00000039  00000-0  00000+0 0  9998
2 28790   0.0207  55.8300 0002207 190.5053 105.1935  1.00270469 48759
ANIK F1R                
1 28868U 05036A   18341.89839164 -.00000072  00000-0  00000-0 0  9991
2 28868   0.0213  33.4787 0001153 283.0991 336.1560  1.00270667 18905
GALAXY 15 (G-15)        
1 28884U 05041A   18342.49877951  .00000082  00000-0  00000+0 0  9997
2 28884   0.0039   2.9763 0001662 251.6206 229.1678  1.00271109 48073
SYRACUSE 3A             
1 28885U 05041B   18341.90121156  .00000131  00000-0  00000-0 0  9998
2 28885   0.0078  19.2263 0002560 232.1346 196.6873  1.00271539 48195
INMARSAT 4-F2           
1 28899U 05044A   18341.67075413  .00000011  00000-0  00000+0 0  9990
2 28899   2.7475  22.1596 0002810 243.7157 115.8911  1.00272837 47948
TELKOM 2                
1 28902U 05046A   18342.52543164 -.00000135  00000-0  00000+0 0  9993
2 28902   0.0061  80.7540 0001198 335.5719   7.0591  1.00271633 47697
SPACEWAY 2              
1 28903U 05046B   18342.47431133 -.00000125  00000-0  00000+0 0  9999
2 28903   0.0114  92.5873 0000075 219.1368 197.1499  1.00276572 47940
INSAT-4A                
1 28911U 05049A   18342.55459363 -.00000162  00000-0  00000+0 0  9996
2 28911   0.0843 276.5609 0005945 350.6934  92.6896  1.00272209 47549
METEOSAT-9 (MSG-2)      
1 28912U 05049B   18338.76185067  .00000020  00000-0  00000+0 0  9994
2 28912   3.2673  71.5570 0001407 307.0324 332.9466  1.00279382 47489
